{"type": "FeatureCollection", "features": [ {"type": "Feature", "properties": {"norad_id": 43058, "name": "GSAT0218 (GALILEO 22)", "group": "galileo", "lat": 51.6533326570926, "lon": -71.62066081849426, "alt_km": 23221.067184238087, "timestamp": "2025-12-12T03:50:52.680301+00:00", "meta": {"OBJECT_NAME": "GSAT0218 (GALILEO 22)", "OBJECT_ID": "2017-079D", "EPOCH": "2025-12-09T02:36:28.325952", "MEAN_MOTION": 1.70473942, "ECCENTRICITY": 0.00028125, "INCLINATION": 55.1298, "RA_OF_ASC_NODE": 226.7335, "ARG_OF_PERICENTER": 306.3632, "MEAN_ANOMALY": 53.6978, "EPHEMERIS_TYPE": 0, "CLASSIFICATION_TYPE": "U", "NORAD_CAT_ID": 43058, "ELEMENT_SET_NO": 999, "REV_AT_EPOCH": 4977, "BSTAR": 0, "MEAN_MOTION_DOT": 1.2e-07, "MEAN_MOTION_DDOT": 0}, "tle": {"line1": "1 43058U 17079D   25343.10866118  .00000012  00000+0  00000+0 0  9993", "line2": "2 43058  55.1298 226.7335 0002812 306.3632  53.6978  1.70473942 49778"}}, "geometry": {"type": "Point", "coordinates": [-71.62066081849426, 51.6533326570926]}}, {"type": "Feature", "properties": {"norad_id": 43564, "name": "GSAT0221 (GALILEO 25)", "group": "galileo", "lat": 38.24073846831627, "lon": 136.3226491758997, "alt_km": 23234.640724421795, "timestamp": "2025-12-12T03:50:52.680311+00:00", "meta": {"OBJECT_NAME": "GSAT0221 (GALILEO 25)", "OBJECT_ID": "2018-060A", "EPOCH": "2025-12-10T18:30:15.067872", "MEAN_MOTION": 1.70475777, "ECCENTRICITY": 0.0006715, "INCLINATION": 57.2282, "RA_OF_ASC_NODE": 346.8706, "ARG_OF_PERICENTER": 282.7382, "MEAN_ANOMALY": 77.2035, "EPHEMERIS_TYPE": 0, "CLASSIFICATION_TYPE": "U", "NORAD_CAT_ID": 43564, "ELEMENT_SET_NO": 999, "REV_AT_EPOCH": 4595, "BSTAR": 0, "MEAN_MOTION_DOT": -8.7e-07, "MEAN_MOTION_DDOT": 0}, "tle": {"line1": "1 43564U 18060A   25344.77100773 -.00000087  00000+0  00000+0 0  9991", "line2": "2 43564  57.2282 346.8706 0006715 282.7382  77.2035  1.70475777 45957"}}, "geometry": {"type": "Point", "coordinates": [136.3226491758997, 38.24073846831627]}}, {"type": "Feature", "properties": {"norad_id": 43565, "name": "GSAT0222 (GALILEO 26)", "group": "galileo", "lat": -1.6421790702480843, "lon": -14.222842628294286, "alt_km": 23224.013820782937, "timestamp": "2025-12-12T03:50:52.680322+00:00", "meta": {"OBJECT_NAME": "GSAT0222 (GALILEO 26)", "OBJECT_ID": "2018-060B", "EPOCH": "2025-12-10T23:46:05.542752", "MEAN_MOTION": 1.7047557, "ECCENTRICITY": 0.00061534, "INCLINATION": 57.2317, "RA_OF_ASC_NODE": 346.8677, "ARG_OF_PERICENTER": 263.342, "MEAN_ANOMALY": 96.6049, "EPHEMERIS_TYPE": 0, "CLASSIFICATION_TYPE": "U", "NORAD_CAT_ID": 43565, "ELEMENT_SET_NO": 999, "REV_AT_EPOCH": 4600, "BSTAR": 0, "MEAN_MOTION_DOT": -8.7e-07, "MEAN_MOTION_DDOT": 0}, "tle": {"line1": "1 43565U 18060B   25344.99034193 -.00000087  00000+0  00000+0 0  9998", "line2": "2 43565  57.2317 346.8677 0006153 263.3420  96.6049  1.70475570 46006"}}, "geometry": {"type": "Point", "coordinates": [-14.222842628294286, -1.6421790702480843]}}, {"type": "Feature", "properties": {"norad_id": 43566, "name": "GSAT0219 (GALILEO 23)", "group": "galileo", "lat": -34.41288215376377, "lon": -166.97814231582296, "alt_km": 23218.691595621895, "timestamp": "2025-12-12T03:50:52.680333+00:00", "meta": {"OBJECT_NAME": "GSAT0219 (GALILEO 23)", "OBJECT_ID": "2018-060C", "EPOCH": "2025-12-07T16:36:27.181728", "MEAN_MOTION": 1.7047564, "ECCENTRICITY": 0.00057893, "INCLINATION": 57.2316, "RA_OF_ASC_NODE": 346.9585, "ARG_OF_PERICENTER": 285.9629, "MEAN_ANOMALY": 73.992, "EPHEMERIS_TYPE": 0, "CLASSIFICATION_TYPE": "U", "NORAD_CAT_ID": 43566, "ELEMENT_SET_NO": 999, "REV_AT_EPOCH": 4592, "BSTAR": 0, "MEAN_MOTION_DOT": -8.4e-07, "MEAN_MOTION_DDOT": 0}, "tle": {"line1": "1 43566U 18060C   25341.69198127 -.00000084  00000+0  00000+0 0  9998", "line2": "2 43566  57.2316 346.9585 0005789 285.9629  73.9920  1.70475640 45924"}}, "geometry": {"type": "Point", "coordinates": [-166.97814231582296, -34.41288215376377]}}, {"type": "Feature", "properties": {"norad_id": 43567, "name": "GSAT0220 (GALILEO 24)", "group": "galileo", "lat": 57.066021210052156, "lon": 70.77513703160079, "alt_km": 23232.842765507856, "timestamp": "2025-12-12T03:50:52.680344+00:00", "meta": {"OBJECT_NAME": "GSAT0220 (GALILEO 24)", "OBJECT_ID": "2018-060D", "EPOCH": "2025-12-10T20:18:00.212256", "MEAN_MOTION": 1.70475727, "ECCENTRICITY": 0.0006125, "INCLINATION": 57.2305, "RA_OF_ASC_NODE": 346.8727, "ARG_OF_PERICENTER": 283.9956, "MEAN_ANOMALY": 75.9532, "EPHEMERIS_TYPE": 0, "CLASSIFICATION_TYPE": "U", "NORAD_CAT_ID": 43567, "ELEMENT_SET_NO": 999, "REV_AT_EPOCH": 4596, "BSTAR": 0, "MEAN_MOTION_DOT": -8.7e-07, "MEAN_MOTION_DDOT": 0}, "tle": {"line1": "1 43567U 18060D   25344.84583579 -.00000087  00000+0  00000+0 0  9991", "line2": "2 43567  57.2305 346.8727 0006125 283.9956  75.9532  1.70475727 45967"}}, "geometry": {"type": "Point", "coordinates": [70.77513703160079, 57.066021210052156]}}, {"type": "Feature", "properties": {"norad_id": 49809, "name": "GSAT0223 (GALILEO 27)", "group": "galileo", "lat": 2.1743922339955652, "lon": 165.32483472166925, "alt_km": 23218.28680459837, "timestamp": "2025-12-12T03:50:52.680355+00:00", "meta": {"OBJECT_NAME": "GSAT0223 (GALILEO 27)", "OBJECT_ID": "2021-116A", "EPOCH": "2025-12-10T02:39:25.687008", "MEAN_MOTION": 1.70475768, "ECCENTRICITY": 0.000463, "INCLINATION": 57.2198, "RA_OF_ASC_NODE": 346.7831, "ARG_OF_PERICENTER": 251.6037, "MEAN_ANOMALY": 107.9349, "EPHEMERIS_TYPE": 0, "CLASSIFICATION_TYPE": "U", "NORAD_CAT_ID": 49809, "ELEMENT_SET_NO": 999, "REV_AT_EPOCH": 2495, "BSTAR": 0, "MEAN_MOTION_DOT": -8.7e-07, "MEAN_MOTION_DDOT": 0}, "tle": {"line1": "1 49809U 21116A   25344.11071397 -.00000087  00000+0  00000+0 0  9992", "line2": "2 49809  57.2198 346.7831 0004630 251.6037 107.9349  1.70475768 24951"}}, "geometry": {"type": "Point", "coordinates": [165.32483472166925, 2.1743922339955652]}}, {"type": "Feature", "properties": {"norad_id": 49810, "name": "GSAT0224 (GALILEO 28)", "group": "galileo", "lat": -52.15255471049931, "lon": -69.30464076178872, "alt_km": 23218.025281792932, "timestamp": "2025-12-12T03:50:52.680366+00:00", "meta": {"OBJECT_NAME": "GSAT0224 (GALILEO 28)", "OBJECT_ID": "2021-116B", "EPOCH": "2025-12-10T19:26:19.690368", "MEAN_MOTION": 1.70475895, "ECCENTRICITY": 0.000393, "INCLINATION": 57.2205, "RA_OF_ASC_NODE": 346.7629, "ARG_OF_PERICENTER": 256.2791, "MEAN_ANOMALY": 284.9883, "EPHEMERIS_TYPE": 0, "CLASSIFICATION_TYPE": "U", "NORAD_CAT_ID": 49810, "ELEMENT_SET_NO": 999, "REV_AT_EPOCH": 2499, "BSTAR": 0, "MEAN_MOTION_DOT": -8.7e-07, "MEAN_MOTION_DDOT": 0}, "tle": {"line1": "1 49810U 21116B   25344.80995012 -.00000087  00000+0  00000+0 0  9999", "line2": "2 49810  57.2205 346.7629 0003930 256.2791 284.9883  1.70475895 24991"}}, "geometry": {"type": "Point", "coordinates": [-69.30464076178872, -52.15255471049931]}}, {"type": "Feature", "properties": {"norad_id": 59598, "name": "GSAT0225 (GALILEO 29)", "group": "galileo", "lat": -53.09162824687115, "lon": 37.54802806611009, "alt_km": 23229.574859926757, "timestamp": "2025-12-12T03:50:52.680377+00:00", "meta": {"OBJECT_NAME": "GSAT0225 (GALILEO 29)", "OBJECT_ID": "2024-079A", "EPOCH": "2025-12-10T12:47:07.958400", "MEAN_MOTION": 1.70474727, "ECCENTRICITY": 0.00020453, "INCLINATION": 55.0006, "RA_OF_ASC_NODE": 106.3566, "ARG_OF_PERICENTER": 176.2356, "MEAN_ANOMALY": 187.363, "EPHEMERIS_TYPE": 0, "CLASSIFICATION_TYPE": "U", "NORAD_CAT_ID": 59598, "ELEMENT_SET_NO": 999, "REV_AT_EPOCH": 1010, "BSTAR": 0, "MEAN_MOTION_DOT": 1e-07, "MEAN_MOTION_DDOT": 0}, "tle": {"line1": "1 59598U 24079A   25344.53273100  .00000010  00000+0  00000+0 0  9996", "line2": "2 59598  55.0006 106.3566 0002045 176.2356 187.3630  1.70474727 10101"}}, "geometry": {"type": "Point", "coordinates": [37.54802806611009, -53.09162824687115]}}, {"type": "Feature", "properties": {"norad_id": 59600, "name": "GSAT0227 (GALILEO 30)", "group": "galileo", "lat": 8.12096825095778, "lon": -79.43441521430768, "alt_km": 23215.86005570646, "timestamp": "2025-12-12T03:50:52.680388+00:00", "meta": {"OBJECT_NAME": "GSAT0227 (GALILEO 30)", "OBJECT_ID": "2024-079C", "EPOCH": "2025-12-08T22:48:42.234912", "MEAN_MOTION": 1.70474719, "ECCENTRICITY": 0.0003262, "INCLINATION": 54.9946, "RA_OF_ASC_NODE": 106.4003, "ARG_OF_PERICENTER": 114.182, "MEAN_ANOMALY": 245.816, "EPHEMERIS_TYPE": 0, "CLASSIFICATION_TYPE": "U", "NORAD_CAT_ID": 59600, "ELEMENT_SET_NO": 999, "REV_AT_EPOCH": 1012, "BSTAR": 0, "MEAN_MOTION_DOT": 9e-08, "MEAN_MOTION_DDOT": 0}, "tle": {"line1": "1 59600U 24079C   25342.95048883  .00000009  00000+0  00000+0 0  9990", "line2": "2 59600  54.9946 106.4003 0003262 114.1820 245.8160  1.70474719 10123"}}, "geometry": {"type": "Point", "coordinates": [-79.43441521430768, 8.12096825095778]}}, {"type": "Feature", "properties": {"norad_id": 61182, "name": "GSAT0232 (GALILEO 32)", "group": "galileo", "lat": 3.6398943173917515, "lon": -131.0165073503632, "alt_km": 23227.194306958536, "timestamp": "2025-12-12T03:50:52.680399+00:00", "meta": {"OBJECT_NAME": "GSAT0232 (GALILEO 32)", "OBJECT_ID": "2024-167A", "EPOCH": "2025-12-10T16:21:03.753216", "MEAN_MOTION": 1.70473375, "ECCENTRICITY": 0.00019436, "INCLINATION": 55.2414, "RA_OF_ASC_NODE": 226.4872, "ARG_OF_PERICENTER": 211.0668, "MEAN_ANOMALY": 325.7159, "EPHEMERIS_TYPE": 0, "CLASSIFICATION_TYPE": "U", "NORAD_CAT_ID": 61182, "ELEMENT_SET_NO": 999, "REV_AT_EPOCH": 766, "BSTAR": 0, "MEAN_MOTION_DOT": 9e-08, "MEAN_MOTION_DDOT": 0}, "tle": {"line1": "1 61182U 24167A   25344.68129344  .00000009  00000+0  00000+0 0  9990", "line2": "2 61182  55.2414 226.4872 0001943 211.0668 325.7159  1.70473375  7661"}}, "geometry": {"type": "Point", "coordinates": [-131.0165073503632, 3.6398943173917515]}}]}